[
  {
    "OBJECT_NAME": "STARLINK-31536",
    "OBJECT_ID": "24045Q",
    "EPOCH": "2025-11-11T08:00:03.000384",
    "MEAN_MOTION": 15.27555603,
    "ECCENTRICITY": 0.000108,
    "INCLINATION": 43.0034,
    "RA_OF_ASC_NODE": 40.9461,
    "ARG_OF_PERICENTER": 284.1955,
    "MEAN_ANOMALY": 316.7707,
    "EPHEMERIS_TYPE": 0,
    "CLASSIFICATION_TYPE": "U",
    "NORAD_CAT_ID": 59192,
    "ELEMENT_SET_NO": 999,
    "REV_AT_EPOCH": 587,
    "BSTAR": 0.00045074,
    "MEAN_MOTION_DOT": 0.00012152,
    "MEAN_MOTION_DDOT": 0.0,
    "TLE_LINE1": "1 59192U 24045Q   25315.33336806  .00012152  00000+0  45074-3 0  9992",
    "TLE_LINE2": "2 59192  43.0034  40.9461 0001080 284.1955 316.7707 15.27555603  5879",
    "COMMENT": "Grouped by shell and plane from TLE"
  },
  {
    "OBJECT_NAME": "STARLINK-31548",
    "OBJECT_ID": "24045R",
    "EPOCH": "2025-11-11T07:37:45.702048",
    "MEAN_MOTION": 15.27586068,
    "ECCENTRICITY": 5.97e-05,
    "INCLINATION": 43.001,
    "RA_OF_ASC_NODE": 41.4166,
    "ARG_OF_PERICENTER": 296.4723,
    "MEAN_ANOMALY": 63.6068,
    "EPHEMERIS_TYPE": 0,
    "CLASSIFICATION_TYPE": "U",
    "NORAD_CAT_ID": 59193,
    "ELEMENT_SET_NO": 999,
    "REV_AT_EPOCH": 9505,
    "BSTAR": 0.00018824,
    "MEAN_MOTION_DOT": 4.922e-05,
    "MEAN_MOTION_DDOT": 0.0,
    "TLE_LINE1": "1 59193U 24045R   25315.31789007  .00004922  00000+0  18824-3 0  9995",
    "TLE_LINE2": "2 59193  43.0010  41.4166 0000597 296.4723  63.6068 15.27586068 95059",
    "COMMENT": "Grouped by shell and plane from TLE"
  },
  {
    "OBJECT_NAME": "STARLINK-31542",
    "OBJECT_ID": "24045S",
    "EPOCH": "2025-11-11T06:14:29.565888",
    "MEAN_MOTION": 15.27580334,
    "ECCENTRICITY": 7.78e-05,
    "INCLINATION": 43.0001,
    "RA_OF_ASC_NODE": 40.9776,
    "ARG_OF_PERICENTER": 249.475,
    "MEAN_ANOMALY": 110.6018,
    "EPHEMERIS_TYPE": 0,
    "CLASSIFICATION_TYPE": "U",
    "NORAD_CAT_ID": 59194,
    "ELEMENT_SET_NO": 999,
    "REV_AT_EPOCH": 9505,
    "BSTAR": 6.7025e-05,
    "MEAN_MOTION_DOT": 1.583e-05,
    "MEAN_MOTION_DDOT": 0.0,
    "TLE_LINE1": "1 59194U 24045S   25315.26006442  .00001583  00000+0  67025-4 0  9993",
    "TLE_LINE2": "2 59194  43.0001  40.9776 0000778 249.4750 110.6018 15.27580334 95058",
    "COMMENT": "Grouped by shell and plane from TLE"
  },
  {
    "OBJECT_NAME": "STARLINK-31554",
    "OBJECT_ID": "24045T",
    "EPOCH": "2025-11-11T07:17:25.116288",
    "MEAN_MOTION": 15.27579318,
    "ECCENTRICITY": 8.4e-05,
    "INCLINATION": 43.003,
    "RA_OF_ASC_NODE": 41.3062,
    "ARG_OF_PERICENTER": 261.8032,
    "MEAN_ANOMALY": 98.2724,
    "EPHEMERIS_TYPE": 0,
    "CLASSIFICATION_TYPE": "U",
    "NORAD_CAT_ID": 59195,
    "ELEMENT_SET_NO": 999,
    "REV_AT_EPOCH": 9505,
    "BSTAR": 2.7072000000000004e-05,
    "MEAN_MOTION_DOT": 4.83e-06,
    "MEAN_MOTION_DDOT": 0.0,
    "TLE_LINE1": "1 59195U 24045T   25315.30376292  .00000483  00000+0  27072-4 0  9998",
    "TLE_LINE2": "2 59195  43.0030  41.3062 0000840 261.8032  98.2724 15.27579318 95050",
    "COMMENT": "Grouped by shell and plane from TLE"
  },
  {
    "OBJECT_NAME": "STARLINK-31558",
    "OBJECT_ID": "24045U",
    "EPOCH": "2025-11-11T06:20:01.398048",
    "MEAN_MOTION": 15.27643369,
    "ECCENTRICITY": 0.0001215,
    "INCLINATION": 43.0005,
    "RA_OF_ASC_NODE": 41.0109,
    "ARG_OF_PERICENTER": 273.4199,
    "MEAN_ANOMALY": 86.6513,
    "EPHEMERIS_TYPE": 0,
    "CLASSIFICATION_TYPE": "U",
    "NORAD_CAT_ID": 59196,
    "ELEMENT_SET_NO": 999,
    "REV_AT_EPOCH": 9506,
    "BSTAR": 0.0015267,
    "MEAN_MOTION_DOT": 0.00042072,
    "MEAN_MOTION_DDOT": 0.0,
    "TLE_LINE1": "1 59196U 24045U   25315.26390507  .00042072  00000+0  15267-2 0  9990",
    "TLE_LINE2": "2 59196  43.0005  41.0109 0001215 273.4199  86.6513 15.27643369 95068",
    "COMMENT": "Grouped by shell and plane from TLE"
  },
  {
    "OBJECT_NAME": "STARLINK-31275",
    "OBJECT_ID": "24045V",
    "EPOCH": "2025-11-11T07:22:58.966752",
    "MEAN_MOTION": 15.27557263,
    "ECCENTRICITY": 0.0001248,
    "INCLINATION": 43.0032,
    "RA_OF_ASC_NODE": 41.3356,
    "ARG_OF_PERICENTER": 253.6129,
    "MEAN_ANOMALY": 106.4586,
    "EPHEMERIS_TYPE": 0,
    "CLASSIFICATION_TYPE": "U",
    "NORAD_CAT_ID": 59197,
    "ELEMENT_SET_NO": 999,
    "REV_AT_EPOCH": 9505,
    "BSTAR": 0.0,
    "MEAN_MOTION_DOT": -7.63e-06,
    "MEAN_MOTION_DDOT": 0.0,
    "TLE_LINE1": "1 59197U 24045V   25315.30762693 -.00000763  00000+0 -18228-4 0  9990",
    "TLE_LINE2": "2 59197  43.0032  41.3356 0001248 253.6129 106.4586 15.27557263 95052",
    "COMMENT": "Grouped by shell and plane from TLE"
  },
  {
    "OBJECT_NAME": "STARLINK-31590",
    "OBJECT_ID": "24045W",
    "EPOCH": "2025-11-11T07:34:04.086912",
    "MEAN_MOTION": 15.27579832,
    "ECCENTRICITY": 0.0001492,
    "INCLINATION": 43.0027,
    "RA_OF_ASC_NODE": 41.3945,
    "ARG_OF_PERICENTER": 277.5544,
    "MEAN_ANOMALY": 82.5138,
    "EPHEMERIS_TYPE": 0,
    "CLASSIFICATION_TYPE": "U",
    "NORAD_CAT_ID": 59198,
    "ELEMENT_SET_NO": 999,
    "REV_AT_EPOCH": 9505,
    "BSTAR": 5.7060999999999995e-05,
    "MEAN_MOTION_DOT": 1.308e-05,
    "MEAN_MOTION_DDOT": 0.0,
    "TLE_LINE1": "1 59198U 24045W   25315.31532508  .00001308  00000+0  57061-4 0  9994",
    "TLE_LINE2": "2 59198  43.0027  41.3945 0001492 277.5544  82.5138 15.27579832 95051",
    "COMMENT": "Grouped by shell and plane from TLE"
  },
  {
    "OBJECT_NAME": "STARLINK-31567",
    "OBJECT_ID": "24045X",
    "EPOCH": "2025-11-11T06:40:24.392640",
    "MEAN_MOTION": 15.27566535,
    "ECCENTRICITY": 0.0001335,
    "INCLINATION": 43.0011,
    "RA_OF_ASC_NODE": 41.1171,
    "ARG_OF_PERICENTER": 285.5353,
    "MEAN_ANOMALY": 74.5351,
    "EPHEMERIS_TYPE": 0,
    "CLASSIFICATION_TYPE": "U",
    "NORAD_CAT_ID": 59199,
    "ELEMENT_SET_NO": 999,
    "REV_AT_EPOCH": 9505,
    "BSTAR": 4.8521e-05,
    "MEAN_MOTION_DOT": 1.073e-05,
    "MEAN_MOTION_DDOT": 0.0,
    "TLE_LINE1": "1 59199U 24045X   25315.27806010  .00001073  00000+0  48521-4 0  9992",
    "TLE_LINE2": "2 59199  43.0011  41.1171 0001335 285.5353  74.5351 15.27566535 95051",
    "COMMENT": "Grouped by shell and plane from TLE"
  },
  {
    "OBJECT_NAME": "STARLINK-31503",
    "OBJECT_ID": "24045Y",
    "EPOCH": "2025-11-11T06:45:57.166560",
    "MEAN_MOTION": 15.27588702,
    "ECCENTRICITY": 0.0001719,
    "INCLINATION": 43.0023,
    "RA_OF_ASC_NODE": 41.147,
    "ARG_OF_PERICENTER": 280.0443,
    "MEAN_ANOMALY": 80.0215,
    "EPHEMERIS_TYPE": 0,
    "CLASSIFICATION_TYPE": "U",
    "NORAD_CAT_ID": 59200,
    "ELEMENT_SET_NO": 999,
    "REV_AT_EPOCH": 9505,
    "BSTAR": 0.0,
    "MEAN_MOTION_DOT": -2.159e-05,
    "MEAN_MOTION_DDOT": 0.0,
    "TLE_LINE1": "1 59200U 24045Y   25315.28191165 -.00002159  00000+0 -68942-4 0  9991",
    "TLE_LINE2": "2 59200  43.0023  41.1470 0001719 280.0443  80.0215 15.27588702 95056",
    "COMMENT": "Grouped by shell and plane from TLE"
  },
  {
    "OBJECT_NAME": "STARLINK-31660",
    "OBJECT_ID": "24082M",
    "EPOCH": "2025-11-11T07:08:35.187936",
    "MEAN_MOTION": 15.27582486,
    "ECCENTRICITY": 0.0001557,
    "INCLINATION": 43.0025,
    "RA_OF_ASC_NODE": 48.0528,
    "ARG_OF_PERICENTER": 283.0042,
    "MEAN_ANOMALY": 77.0636,
    "EPHEMERIS_TYPE": 0,
    "CLASSIFICATION_TYPE": "U",
    "NORAD_CAT_ID": 59642,
    "ELEMENT_SET_NO": 999,
    "REV_AT_EPOCH": 8736,
    "BSTAR": 5.6241e-05,
    "MEAN_MOTION_DOT": 1.286e-05,
    "MEAN_MOTION_DDOT": 0.0,
    "TLE_LINE1": "1 59642U 24082M   25315.29762949  .00001286  00000+0  56241-4 0  9994",
    "TLE_LINE2": "2 59642  43.0025  48.0528 0001557 283.0042  77.0636 15.27582486 87367",
    "COMMENT": "Grouped by shell and plane from TLE"
  },
  {
    "OBJECT_NAME": "STARLINK-31920",
    "OBJECT_ID": "24100Y",
    "EPOCH": "2025-11-11T06:12:51.055200",
    "MEAN_MOTION": 15.27586611,
    "ECCENTRICITY": 4.29e-05,
    "INCLINATION": 43.0027,
    "RA_OF_ASC_NODE": 41.7891,
    "ARG_OF_PERICENTER": 278.5392,
    "MEAN_ANOMALY": 81.5411,
    "EPHEMERIS_TYPE": 0,
    "CLASSIFICATION_TYPE": "U",
    "NORAD_CAT_ID": 59907,
    "ELEMENT_SET_NO": 999,
    "REV_AT_EPOCH": 8340,
    "BSTAR": 2.4452e-05,
    "MEAN_MOTION_DOT": 4.11e-06,
    "MEAN_MOTION_DDOT": 0.0,
    "TLE_LINE1": "1 59907U 24100Y   25315.25892425  .00000411  00000+0  24452-4 0  9996",
    "TLE_LINE2": "2 59907  43.0027  41.7891 0000429 278.5392  81.5411 15.27586611 83406",
    "COMMENT": "Grouped by shell and plane from TLE"
  },
  {
    "OBJECT_NAME": "STARLINK-32250",
    "OBJECT_ID": "24144A",
    "EPOCH": "2025-11-11T06:17:44.483424",
    "MEAN_MOTION": 15.3019022,
    "ECCENTRICITY": 0.0001417,
    "INCLINATION": 53.1602,
    "RA_OF_ASC_NODE": 47.4844,
    "ARG_OF_PERICENTER": 79.4071,
    "MEAN_ANOMALY": 280.709,
    "EPHEMERIS_TYPE": 0,
    "CLASSIFICATION_TYPE": "U",
    "NORAD_CAT_ID": 60425,
    "ELEMENT_SET_NO": 999,
    "REV_AT_EPOCH": 7027,
    "BSTAR": 8.550900000000001e-05,
    "MEAN_MOTION_DOT": 2.173e-05,
    "MEAN_MOTION_DDOT": 0.0,
    "TLE_LINE1": "1 60425U 24144A   25315.26232041  .00002173  00000+0  85509-4 0  9991",
    "TLE_LINE2": "2 60425  53.1602  47.4844 0001417  79.4071 280.7090 15.30190220 70273",
    "COMMENT": "Grouped by shell and plane from TLE"
  },
  {
    "OBJECT_NAME": "STARLINK-32226",
    "OBJECT_ID": "24144B",
    "EPOCH": "2025-11-11T06:16:13.257984",
    "MEAN_MOTION": 15.30193795,
    "ECCENTRICITY": 0.0001281,
    "INCLINATION": 53.1622,
    "RA_OF_ASC_NODE": 47.4802,
    "ARG_OF_PERICENTER": 73.8984,
    "MEAN_ANOMALY": 286.2158,
    "EPHEMERIS_TYPE": 0,
    "CLASSIFICATION_TYPE": "U",
    "NORAD_CAT_ID": 60426,
    "ELEMENT_SET_NO": 999,
    "REV_AT_EPOCH": 7117,
    "BSTAR": 0.00013478,
    "MEAN_MOTION_DOT": 3.634e-05,
    "MEAN_MOTION_DDOT": 0.0,
    "TLE_LINE1": "1 60426U 24144B   25315.26126456  .00003634  00000+0  13478-3 0  9992",
    "TLE_LINE2": "2 60426  53.1622  47.4802 0001281  73.8984 286.2158 15.30193795 71176",
    "COMMENT": "Grouped by shell and plane from TLE"
  }
]